<?xml version="1.0" encoding="UTF-8"?>
<ndm xmlns:xsi="http://www.w3.org/2001/XMLSchema-instance" xsi:noNamespaceSchemaLocation="https://sanaregistry.org/r/ndmxml_unqualified/ndmxml-2.0.0-master-2.0.xsd">
<omm id="CCSDS_OMM_VERS" version="2.0">
<header><CREATION_DATE/><ORIGINATOR/></header><body><segment><metadata><OBJECT_NAME>KUIPER-00136</OBJECT_NAME><OBJECT_ID>2025-228R</OBJECT_ID><CENTER_NAME>EARTH</CENTER_NAME><REF_FRAME>TEME</REF_FRAME><TIME_SYSTEM>UTC</TIME_SYSTEM><MEAN_ELEMENT_THEORY>SGP4</MEAN_ELEMENT_THEORY></metadata><data><meanElements><EPOCH>2025-12-20T00:00:02.000160</EPOCH><MEAN_MOTION>15.27647787</MEAN_MOTION><ECCENTRICITY>.0006766</ECCENTRICITY><INCLINATION>51.8848</INCLINATION><RA_OF_ASC_NODE>345.8220</RA_OF_ASC_NODE><ARG_OF_PERICENTER>51.6303</ARG_OF_PERICENTER><MEAN_ANOMALY>114.5828</MEAN_ANOMALY></meanElements><tleParameters><EPHEMERIS_TYPE>0</EPHEMERIS_TYPE><CLASSIFICATION_TYPE>U</CLASSIFICATION_TYPE><NORAD_CAT_ID>65962</NORAD_CAT_ID><ELEMENT_SET_NO>999</ELEMENT_SET_NO><REV_AT_EPOCH>130</REV_AT_EPOCH><BSTAR>-.38499E-1</BSTAR><MEAN_MOTION_DOT>-.975948E-2</MEAN_MOTION_DOT><MEAN_MOTION_DDOT>0</MEAN_MOTION_DDOT></tleParameters></data></segment></body></omm>
<omm id="CCSDS_OMM_VERS" version="2.0">
<header><CREATION_DATE/><ORIGINATOR/></header><body><segment><metadata><OBJECT_NAME>KUIPER-00137</OBJECT_NAME><OBJECT_ID>2025-228S</OBJECT_ID><CENTER_NAME>EARTH</CENTER_NAME><REF_FRAME>TEME</REF_FRAME><TIME_SYSTEM>UTC</TIME_SYSTEM><MEAN_ELEMENT_THEORY>SGP4</MEAN_ELEMENT_THEORY></metadata><data><meanElements><EPOCH>2025-12-20T22:00:01.999584</EPOCH><MEAN_MOTION>15.33591023</MEAN_MOTION><ECCENTRICITY>.00056877</ECCENTRICITY><INCLINATION>51.8804</INCLINATION><RA_OF_ASC_NODE>341.1864</RA_OF_ASC_NODE><ARG_OF_PERICENTER>66.8369</ARG_OF_PERICENTER><MEAN_ANOMALY>260.4529</MEAN_ANOMALY></meanElements><tleParameters><EPHEMERIS_TYPE>0</EPHEMERIS_TYPE><CLASSIFICATION_TYPE>U</CLASSIFICATION_TYPE><NORAD_CAT_ID>65963</NORAD_CAT_ID><ELEMENT_SET_NO>999</ELEMENT_SET_NO><REV_AT_EPOCH>566</REV_AT_EPOCH><BSTAR>-.38893549E-1</BSTAR><MEAN_MOTION_DOT>-.1168184E-1</MEAN_MOTION_DOT><MEAN_MOTION_DDOT>0</MEAN_MOTION_DDOT></tleParameters></data></segment></body></omm>
<omm id="CCSDS_OMM_VERS" version="2.0">
<header><CREATION_DATE/><ORIGINATOR/></header><body><segment><metadata><OBJECT_NAME>KUIPER-00138</OBJECT_NAME><OBJECT_ID>2025-228T</OBJECT_ID><CENTER_NAME>EARTH</CENTER_NAME><REF_FRAME>TEME</REF_FRAME><TIME_SYSTEM>UTC</TIME_SYSTEM><MEAN_ELEMENT_THEORY>SGP4</MEAN_ELEMENT_THEORY></metadata><data><meanElements><EPOCH>2025-12-20T15:56:19.209408</EPOCH><MEAN_MOTION>15.36091737</MEAN_MOTION><ECCENTRICITY>.00080271</ECCENTRICITY><INCLINATION>51.8791</INCLINATION><RA_OF_ASC_NODE>342.4104</RA_OF_ASC_NODE><ARG_OF_PERICENTER>53.5767</ARG_OF_PERICENTER><MEAN_ANOMALY>306.5958</MEAN_ANOMALY></meanElements><tleParameters><EPHEMERIS_TYPE>0</EPHEMERIS_TYPE><CLASSIFICATION_TYPE>U</CLASSIFICATION_TYPE><NORAD_CAT_ID>65964</NORAD_CAT_ID><ELEMENT_SET_NO>999</ELEMENT_SET_NO><REV_AT_EPOCH>1163</REV_AT_EPOCH><BSTAR>.62154579E-3</BSTAR><MEAN_MOTION_DOT>.21885E-3</MEAN_MOTION_DOT><MEAN_MOTION_DDOT>0</MEAN_MOTION_DDOT></tleParameters></data></segment></body></omm>
<omm id="CCSDS_OMM_VERS" version="2.0">
<header><CREATION_DATE/><ORIGINATOR/></header><body><segment><metadata><OBJECT_NAME>KUIPER-00140</OBJECT_NAME><OBJECT_ID>2025-228U</OBJECT_ID><CENTER_NAME>EARTH</CENTER_NAME><REF_FRAME>TEME</REF_FRAME><TIME_SYSTEM>UTC</TIME_SYSTEM><MEAN_ELEMENT_THEORY>SGP4</MEAN_ELEMENT_THEORY></metadata><data><meanElements><EPOCH>2025-12-20T22:00:01.999584</EPOCH><MEAN_MOTION>15.31203591</MEAN_MOTION><ECCENTRICITY>.00082169</ECCENTRICITY><INCLINATION>51.8814</INCLINATION><RA_OF_ASC_NODE>341.3830</RA_OF_ASC_NODE><ARG_OF_PERICENTER>50.7385</ARG_OF_PERICENTER><MEAN_ANOMALY>168.1905</MEAN_ANOMALY></meanElements><tleParameters><EPHEMERIS_TYPE>0</EPHEMERIS_TYPE><CLASSIFICATION_TYPE>U</CLASSIFICATION_TYPE><NORAD_CAT_ID>65965</NORAD_CAT_ID><ELEMENT_SET_NO>999</ELEMENT_SET_NO><REV_AT_EPOCH>502</REV_AT_EPOCH><BSTAR>.13478603E-2</BSTAR><MEAN_MOTION_DOT>.41119E-3</MEAN_MOTION_DOT><MEAN_MOTION_DDOT>0</MEAN_MOTION_DDOT></tleParameters></data></segment></body></omm>
<omm id="CCSDS_OMM_VERS" version="2.0">
<header><CREATION_DATE/><ORIGINATOR/></header><body><segment><metadata><OBJECT_NAME>KUIPER-00141</OBJECT_NAME><OBJECT_ID>2025-228V</OBJECT_ID><CENTER_NAME>EARTH</CENTER_NAME><REF_FRAME>TEME</REF_FRAME><TIME_SYSTEM>UTC</TIME_SYSTEM><MEAN_ELEMENT_THEORY>SGP4</MEAN_ELEMENT_THEORY></metadata><data><meanElements><EPOCH>2025-12-20T23:13:26.198112</EPOCH><MEAN_MOTION>15.36812407</MEAN_MOTION><ECCENTRICITY>.00063439</ECCENTRICITY><INCLINATION>51.8785</INCLINATION><RA_OF_ASC_NODE>340.6999</RA_OF_ASC_NODE><ARG_OF_PERICENTER>46.3891</ARG_OF_PERICENTER><MEAN_ANOMALY>313.7621</MEAN_ANOMALY></meanElements><tleParameters><EPHEMERIS_TYPE>0</EPHEMERIS_TYPE><CLASSIFICATION_TYPE>U</CLASSIFICATION_TYPE><NORAD_CAT_ID>65966</NORAD_CAT_ID><ELEMENT_SET_NO>999</ELEMENT_SET_NO><REV_AT_EPOCH>1168</REV_AT_EPOCH><BSTAR>.79129567E-3</BSTAR><MEAN_MOTION_DOT>.28647E-3</MEAN_MOTION_DOT><MEAN_MOTION_DDOT>0</MEAN_MOTION_DDOT></tleParameters></data></segment></body></omm>
<omm id="CCSDS_OMM_VERS" version="2.0">
<header><CREATION_DATE/><ORIGINATOR/></header><body><segment><metadata><OBJECT_NAME>KUIPER-00146</OBJECT_NAME><OBJECT_ID>2025-228W</OBJECT_ID><CENTER_NAME>EARTH</CENTER_NAME><REF_FRAME>TEME</REF_FRAME><TIME_SYSTEM>UTC</TIME_SYSTEM><MEAN_ELEMENT_THEORY>SGP4</MEAN_ELEMENT_THEORY></metadata><data><meanElements><EPOCH>2025-12-20T04:50:40.840512</EPOCH><MEAN_MOTION>15.36019528</MEAN_MOTION><ECCENTRICITY>.00077405</ECCENTRICITY><INCLINATION>51.8806</INCLINATION><RA_OF_ASC_NODE>344.5753</RA_OF_ASC_NODE><ARG_OF_PERICENTER>49.0803</ARG_OF_PERICENTER><MEAN_ANOMALY>311.0852</MEAN_ANOMALY></meanElements><tleParameters><EPHEMERIS_TYPE>0</EPHEMERIS_TYPE><CLASSIFICATION_TYPE>U</CLASSIFICATION_TYPE><NORAD_CAT_ID>65967</NORAD_CAT_ID><ELEMENT_SET_NO>999</ELEMENT_SET_NO><REV_AT_EPOCH>1156</REV_AT_EPOCH><BSTAR>.70185579E-3</BSTAR><MEAN_MOTION_DOT>.24713E-3</MEAN_MOTION_DOT><MEAN_MOTION_DDOT>0</MEAN_MOTION_DDOT></tleParameters></data></segment></body></omm>
<omm id="CCSDS_OMM_VERS" version="2.0">
<header><CREATION_DATE/><ORIGINATOR/></header><body><segment><metadata><OBJECT_NAME>KUIPER-00149</OBJECT_NAME><OBJECT_ID>2025-228X</OBJECT_ID><CENTER_NAME>EARTH</CENTER_NAME><REF_FRAME>TEME</REF_FRAME><TIME_SYSTEM>UTC</TIME_SYSTEM><MEAN_ELEMENT_THEORY>SGP4</MEAN_ELEMENT_THEORY></metadata><data><meanElements><EPOCH>2025-12-20T23:13:43.372704</EPOCH><MEAN_MOTION>15.36235692</MEAN_MOTION><ECCENTRICITY>.00053147</ECCENTRICITY><INCLINATION>51.8816</INCLINATION><RA_OF_ASC_NODE>340.7047</RA_OF_ASC_NODE><ARG_OF_PERICENTER>52.5614</ARG_OF_PERICENTER><MEAN_ANOMALY>307.5855</MEAN_ANOMALY></meanElements><tleParameters><EPHEMERIS_TYPE>0</EPHEMERIS_TYPE><CLASSIFICATION_TYPE>U</CLASSIFICATION_TYPE><NORAD_CAT_ID>65968</NORAD_CAT_ID><ELEMENT_SET_NO>999</ELEMENT_SET_NO><REV_AT_EPOCH>1168</REV_AT_EPOCH><BSTAR>.74109947E-3</BSTAR><MEAN_MOTION_DOT>.26294E-3</MEAN_MOTION_DOT><MEAN_MOTION_DDOT>0</MEAN_MOTION_DDOT></tleParameters></data></segment></body></omm>
<omm id="CCSDS_OMM_VERS" version="2.0">
<header><CREATION_DATE/><ORIGINATOR/></header><body><segment><metadata><OBJECT_NAME>KUIPER-00154</OBJECT_NAME><OBJECT_ID>2025-228Y</OBJECT_ID><CENTER_NAME>EARTH</CENTER_NAME><REF_FRAME>TEME</REF_FRAME><TIME_SYSTEM>UTC</TIME_SYSTEM><MEAN_ELEMENT_THEORY>SGP4</MEAN_ELEMENT_THEORY></metadata><data><meanElements><EPOCH>2025-12-20T09:17:13.402752</EPOCH><MEAN_MOTION>15.36179865</MEAN_MOTION><ECCENTRICITY>.0007453</ECCENTRICITY><INCLINATION>51.8805</INCLINATION><RA_OF_ASC_NODE>343.5585</RA_OF_ASC_NODE><ARG_OF_PERICENTER>37.9027</ARG_OF_PERICENTER><MEAN_ANOMALY>322.2482</MEAN_ANOMALY></meanElements><tleParameters><EPHEMERIS_TYPE>0</EPHEMERIS_TYPE><CLASSIFICATION_TYPE>U</CLASSIFICATION_TYPE><NORAD_CAT_ID>65969</NORAD_CAT_ID><ELEMENT_SET_NO>999</ELEMENT_SET_NO><REV_AT_EPOCH>1159</REV_AT_EPOCH><BSTAR>.79365658E-3</BSTAR><MEAN_MOTION_DOT>.28153E-3</MEAN_MOTION_DOT><MEAN_MOTION_DDOT>0</MEAN_MOTION_DDOT></tleParameters></data></segment></body></omm>

</ndm>
