KUIPER-00136            
1 65962U 25228R   25354.00002315 -.00975948  00000+0 -38499-1 0  9994
2 65962  51.8848 345.8220 0006766  51.6303 114.5828 15.27647787  1308
KUIPER-00137            
1 65963U 25228S   25354.91668981 -.01168184  00000+0 -38894-1 0  9998
2 65963  51.8804 341.1864 0005687  66.8369 260.4529 15.33591023  5665
KUIPER-00138            
1 65964U 25228T   25354.66411122  .00021885  00000+0  62155-3 0  9996
2 65964  51.8791 342.4104 0008027  53.5767 306.5958 15.36091737 11630
KUIPER-00140            
1 65965U 25228U   25354.91668981  .00041119  00000+0  13479-2 0  9998
2 65965  51.8814 341.3830 0008216  50.7385 168.1905 15.31203591  5024
KUIPER-00141            
1 65966U 25228V   25354.96766433  .00028647  00000+0  79130-3 0  9993
2 65966  51.8785 340.6999 0006343  46.3891 313.7621 15.36812407 11681
KUIPER-00146            
1 65967U 25228W   25354.20186158  .00024713  00000+0  70186-3 0  9993
2 65967  51.8806 344.5753 0007740  49.0803 311.0852 15.36019528 11569
KUIPER-00149            
1 65968U 25228X   25354.96786311  .00026294  00000+0  74110-3 0  9991
2 65968  51.8816 340.7047 0005314  52.5614 307.5855 15.36235692 11687
KUIPER-00154            
1 65969U 25228Y   25354.38696068  .00028153  00000+0  79366-3 0  9991
2 65969  51.8805 343.5585 0007453  37.9027 322.2482 15.36179865 11594
